ONEWEB-0158             
1 48054U 21025N   26204.76973888  .00000042  00000+0  79301-4 0  9990
2 48054  87.8989 312.9412 0001917 108.9749 251.1587 13.13471402258437
ONEWEB-0157             
1 48055U 21025P   26204.71893674 -.00000304  00000+0 -86676-3 0  9995
2 48055  87.8983 312.9557 0002251  93.3355 266.8031 13.13472066258360
ONEWEB-0162             
1 48056U 21025Q   26204.54277028  .00000039  00000+0  71277-4 0  9991
2 48056  87.8985 312.9909 0001867  96.3209 263.8132 13.13469521258313
ONEWEB-0155             
1 48057U 21025R   26204.70201128 -.00000185  00000+0 -54195-3 0  9991
2 48057  87.8987 312.9558 0001975  96.6144 263.5210 13.13468373258472
ONEWEB-0149             
1 48058U 21025S   26204.72403338 -.00000247  00000+0 -71181-3 0  9994
2 48058  87.8991 312.9562 0001789  94.4872 265.6461 13.13470644258284
ONEWEB-0148             
1 48059U 21025T   26204.68679441  .00000192  00000+0  49060-3 0  9998
2 48059  87.8981 312.9680 0001731  83.2757 276.8569 13.13469580258404
ONEWEB-0160             
1 48060U 21025U   26204.70371331 -.00000183  00000+0 -53540-3 0  9990
2 48060  87.8980 312.9602 0001666 120.3003 239.8291 13.13469619258351
ONEWEB-0163             
1 48061U 21025V   26204.53613235  .00000192  00000+0  49053-3 0  9996
2 48061  87.8993 312.9915 0002202  94.9199 265.2182 13.13469418258452
ONEWEB-0159             
1 48062U 21025W   26204.75619884  .00000386  00000+0  10218-2 0  9992
2 48062  87.8991 312.9418 0002140  95.9836 264.1537 13.13470451258405
ONEWEB-0164             
1 48063U 21025X   26204.73757574  .00000103  00000+0  24839-3 0  9992
2 48063  87.8987 312.9516 0001956 102.2578 257.8770 13.13470178258380
ONEWEB-0167             
1 48064U 21025Y   26204.53698226  .00000146  00000+0  36622-3 0  9999
2 48064  87.8985 312.9981 0002629 102.3366 257.8058 13.13469906258341
ONEWEB-0166             
1 48065U 21025Z   26204.86453628 -.00000271  00000+0 -77582-3 0  9992
2 48065  87.8990 312.9076 0001941  98.0928 262.0421 13.13470421258463
ONEWEB-0151             
1 48066U 21025AA  26204.56150981 -.00000234  00000+0 -67592-3 0  9995
2 48066  87.8990 312.9827 0002088 101.7905 258.3459 13.13470463258362
ONEWEB-0170             
1 48067U 21025AB  26204.72233398 -.00000299  00000+0 -85443-3 0  9994
2 48067  87.8995 312.9531 0002075 115.5489 244.5855 13.13470050258343
ONEWEB-0168             
1 48068U 21025AC  26204.32621310 -.00000265  00000+0 -75963-3 0  9995
2 48068  87.8994 313.0334 0002019 100.9414 259.1942 13.13469944258305
ONEWEB-0173             
1 48069U 21025AD  26204.69863997 -.00000114  00000+0 -34673-3 0  9991
2 48069  87.8986 312.9586 0002307  96.6863 263.4528 13.13469402258591
ONEWEB-0171             
1 48070U 21025AE  26204.73588183  .00000041  00000+0  77642-4 0  9990
2 48070  87.8984 312.9579 0002003 102.2293 257.9061 13.13470527258418
ONEWEB-0172             
1 48071U 21025AF  26204.71555294 -.00000328  00000+0 -93237-3 0  9993
2 48071  87.8990 312.9547 0002127 100.3311 259.8058 13.13471207259300
ONEWEB-0174             
1 48072U 21025AG  26204.31606252 -.00000044  00000+0 -15536-3 0  9992
2 48072  87.8991 313.0330 0001927  95.4375 264.6974 13.13469637258578
ONEWEB-0175             
1 48073U 21025AH  26204.34652840 -.00000103  00000+0 -31796-3 0  9992
2 48073  87.8993 313.0124 0002228 107.0791 253.0582 13.13470234258234
ONEWEB-0177             
1 48074U 21025AJ  26204.73926600  .00000167  00000+0  42265-3 0  9995
2 48074  87.8987 312.9517 0002016  93.3071 266.8289 13.13471157258472
ONEWEB-0178             
1 48075U 21025AK  26204.52949256  .00000328  00000+0  86214-3 0  9996
2 48075  87.8980 313.0026 0002221 101.0783 259.0596 13.13470833258495
ONEWEB-0108             
1 48076U 21025AL  26204.71725838 -.00000328  00000+0 -93210-3 0  9992
2 48076  87.8990 312.9483 0001717  99.0909 261.0414 13.13470058258443
ONEWEB-0169             
1 48077U 21025AM  26204.74942954  .00000318  00000+0  83577-3 0  9998
2 48077  87.8983 312.9479 0001945  96.8408 263.2943 13.13470021257106
ONEWEB-0176             
1 48210U 21031A   26204.63941189 -.00000145  00000+0 -42584-3 0  9994
2 48210  87.8957 282.4364 0002160  99.2005 260.9369 13.14502739253105
ONEWEB-0184             
1 48211U 21031B   26204.68857326  .00000047  00000+0  92495-4 0  9995
2 48211  87.8968 282.4298 0002766 107.7524 252.3908 13.14502886253081
ONEWEB-0179             
1 48212U 21031C   26204.66641725  .00000281  00000+0  84208-4 0  9991
2 48212  87.8986 278.1952 0222856 137.9735 223.8799 14.25577730254247
ONEWEB-0180             
1 48213U 21031D   26204.61562563 -.00000011  00000+0 -62937-4 0  9997
2 48213  87.8971 282.4416 0002428  93.8720 266.2688 13.14502949253008
ONEWEB-0218             
1 48214U 21031E   26204.63781628 -.00000162  00000+0 -47118-3 0  9995
2 48214  87.8968 282.4363 0002924 102.6033 257.5423 13.14503997253164
ONEWEB-0209             
1 48215U 21031F   26204.24613417 -.00000165  00000+0 -47889-3 0  9991
2 48215  87.8960 282.5276 0002187  93.2728 266.8652 13.14504013253110
