OBJECT_NAME,OBJECT_ID,EPOCH,MEAN_MOTION,ECCENTRICITY,INCLINATION,RA_OF_ASC_NODE,ARG_OF_PERICENTER,MEAN_ANOMALY,EPHEMERIS_TYPE,CLASSIFICATION_TYPE,NORAD_CAT_ID,ELEMENT_SET_NO,REV_AT_EPOCH,BSTAR,MEAN_MOTION_DOT,MEAN_MOTION_DDOT
ONEWEB-0158,2021-025N,2026-07-23T18:28:25.439232,13.13471402,.0001917,87.8989,312.9412,108.9749,251.1587,0,U,48054,999,25843,.79301E-4,.42E-6,0
ONEWEB-0157,2021-025P,2026-07-23T17:15:16.134336,13.13472066,.0002251,87.8983,312.9557,93.3355,266.8031,0,U,48055,999,25836,-.86676E-3,-.304E-5,0
ONEWEB-0162,2021-025Q,2026-07-23T13:01:35.352192,13.13469521,.0001867,87.8985,312.9909,96.3209,263.8132,0,U,48056,999,25831,.71277E-4,.39E-6,0
ONEWEB-0155,2021-025R,2026-07-23T16:50:53.774592,13.13468373,.0001975,87.8987,312.9558,96.6144,263.5210,0,U,48057,999,25847,-.54195E-3,-.185E-5,0
ONEWEB-0149,2021-025S,2026-07-23T17:22:36.484032,13.13470644,.0001789,87.8991,312.9562,94.4872,265.6461,0,U,48058,999,25828,-.71181E-3,-.247E-5,0
ONEWEB-0148,2021-025T,2026-07-23T16:28:59.037024,13.13469580,.0001731,87.8981,312.9680,83.2757,276.8569,0,U,48059,999,25840,.4906E-3,.192E-5,0
ONEWEB-0160,2021-025U,2026-07-23T16:53:20.829984,13.13469619,.0001666,87.8980,312.9602,120.3003,239.8291,0,U,48060,999,25835,-.5354E-3,-.183E-5,0
ONEWEB-0163,2021-025V,2026-07-23T12:52:01.835040,13.13469418,.0002202,87.8993,312.9915,94.9199,265.2182,0,U,48061,999,25845,.49053E-3,.192E-5,0
ONEWEB-0159,2021-025W,2026-07-23T18:08:55.579776,13.13470451,.000214,87.8991,312.9418,95.9836,264.1537,0,U,48062,999,25840,.10218E-2,.386E-5,0
ONEWEB-0164,2021-025X,2026-07-23T17:42:06.543936,13.13470178,.0001956,87.8987,312.9516,102.2578,257.8770,0,U,48063,999,25838,.24839E-3,.103E-5,0
ONEWEB-0167,2021-025Y,2026-07-23T12:53:15.267264,13.13469906,.0002629,87.8985,312.9981,102.3366,257.8058,0,U,48064,999,25834,.36622E-3,.146E-5,0
ONEWEB-0166,2021-025Z,2026-07-23T20:44:55.934592,13.13470421,.0001941,87.8990,312.9076,98.0928,262.0421,0,U,48065,999,25846,-.77582E-3,-.271E-5,0
ONEWEB-0151,2021-025AA,2026-07-23T13:28:34.447584,13.13470463,.0002088,87.8990,312.9827,101.7905,258.3459,0,U,48066,999,25836,-.67592E-3,-.234E-5,0
ONEWEB-0170,2021-025AB,2026-07-23T17:20:09.655872,13.13470050,.0002075,87.8995,312.9531,115.5489,244.5855,0,U,48067,999,25834,-.85443E-3,-.299E-5,0
ONEWEB-0168,2021-025AC,2026-07-23T07:49:44.811840,13.13469944,.0002019,87.8994,313.0334,100.9414,259.1942,0,U,48068,999,25830,-.75963E-3,-.265E-5,0
ONEWEB-0173,2021-025AD,2026-07-23T16:46:02.493408,13.13469402,.0002307,87.8986,312.9586,96.6863,263.4528,0,U,48069,999,25859,-.34673E-3,-.114E-5,0
ONEWEB-0171,2021-025AE,2026-07-23T17:39:40.190112,13.13470527,.0002003,87.8984,312.9579,102.2293,257.9061,0,U,48070,999,25841,.77642E-4,.41E-6,0
ONEWEB-0172,2021-025AF,2026-07-23T17:10:23.774016,13.13471207,.0002127,87.8990,312.9547,100.3311,259.8058,0,U,48071,999,25930,-.93237E-3,-.328E-5,0
ONEWEB-0174,2021-025AG,2026-07-23T07:35:07.801728,13.13469637,.0001927,87.8991,313.0330,95.4375,264.6974,0,U,48072,999,25857,-.15536E-3,-.44E-6,0
ONEWEB-0175,2021-025AH,2026-07-23T08:19:00.053760,13.13470234,.0002228,87.8993,313.0124,107.0791,253.0582,0,U,48073,999,25823,-.31796E-3,-.103E-5,0
ONEWEB-0177,2021-025AJ,2026-07-23T17:44:32.582400,13.13471157,.0002016,87.8987,312.9517,93.3071,266.8289,0,U,48074,999,25847,.42265E-3,.167E-5,0
ONEWEB-0178,2021-025AK,2026-07-23T12:42:28.157184,13.13470833,.0002221,87.8980,313.0026,101.0783,259.0596,0,U,48075,999,25849,.86214E-3,.328E-5,0
ONEWEB-0108,2021-025AL,2026-07-23T17:12:51.124032,13.13470058,.0001717,87.8990,312.9483,99.0909,261.0414,0,U,48076,999,25844,-.9321E-3,-.328E-5,0
ONEWEB-0169,2021-025AM,2026-07-23T17:59:10.712256,13.13470021,.0001945,87.8983,312.9479,96.8408,263.2943,0,U,48077,999,25710,.83577E-3,.318E-5,0
ONEWEB-0176,2021-031A,2026-07-23T15:20:45.187296,13.14502739,.000216,87.8957,282.4364,99.2005,260.9369,0,U,48210,999,25310,-.42584E-3,-.145E-5,0
ONEWEB-0184,2021-031B,2026-07-23T16:31:32.729664,13.14502886,.0002766,87.8968,282.4298,107.7524,252.3908,0,U,48211,999,25308,.92495E-4,.47E-6,0
ONEWEB-0179,2021-031C,2026-07-23T15:59:38.450400,14.25577730,.0222856,87.8986,278.1952,137.9735,223.8799,0,U,48212,999,25424,.84208E-4,.281E-5,0
ONEWEB-0180,2021-031D,2026-07-23T14:46:30.054432,13.14502949,.0002428,87.8971,282.4416,93.8720,266.2688,0,U,48213,999,25300,-.62937E-4,-.11E-6,0
ONEWEB-0218,2021-031E,2026-07-23T15:18:27.326592,13.14503997,.0002924,87.8968,282.4363,102.6033,257.5423,0,U,48214,999,25316,-.47118E-3,-.162E-5,0
ONEWEB-0209,2021-031F,2026-07-23T05:54:25.992288,13.14504013,.0002187,87.8960,282.5276,93.2728,266.8652,0,U,48215,999,25311,-.47889E-3,-.165E-5,0
